[{"OBJECT_NAME":"OPS 5712 (P\/L 160)","OBJECT_ID":"1967-053A","EPOCH":"2026-03-09T23:15:46.773504","MEAN_MOTION":14.76189959,"ECCENTRICITY":0.000418,"INCLINATION":69.9166,"RA_OF_ASC_NODE":281.2067,"ARG_OF_PERICENTER":223.4883,"MEAN_ANOMALY":136.5935,"EPHEMERIS_TYPE":0,"CLASSIFICATION_TYPE":"U","NORAD_CAT_ID":2826,"ELEMENT_SET_NO":999,"REV_AT_EPOCH":5158,"BSTAR":0.0012899504,"MEAN_MOTION_DOT":8.87e-5,"MEAN_MOTION_DDOT":0},{"OBJECT_NAME":"CZ-6A DEB","OBJECT_ID":"2022-151MD","EPOCH":"2026-03-09T01:09:00.063360","MEAN_MOTION":14.67742305,"ECCENTRICITY":0.0063173,"INCLINATION":98.4594,"RA_OF_ASC_NODE":100.6325,"ARG_OF_PERICENTER":213.1867,"MEAN_ANOMALY":146.5367,"EPHEMERIS_TYPE":0,"CLASSIFICATION_TYPE":"U","NORAD_CAT_ID":54577,"ELEMENT_SET_NO":999,"REV_AT_EPOCH":17495,"BSTAR":0.0026316145,"MEAN_MOTION_DOT":0.00015427,"MEAN_MOTION_DDOT":0}]
